ONEWEB-0668             
1 56711U 23068B   25178.85480273  .00000104  00000+0  23896-3 0  9994
2 56711  87.9062 299.3764 0001889  84.4786 275.6560 13.16593271105855
ONEWEB-0676             
1 56712U 23068C   25178.83502624  .00000105  00000+0  24136-3 0  9997
2 56712  87.9052 299.4066 0001770 115.0755 245.0560 13.16593360105071
ONEWEB-0677             
1 56713U 23068D   25178.87220492 -.00000239  00000+0 -62070-3 0  9991
2 56713  87.9255 345.0105 0001536  95.3074 264.8234 13.20771431103036
ONEWEB-0678             
1 56714U 23068E   25178.88495794  .00000036  00000+0  61983-4 0  9998
2 56714  87.9062 329.8115 0002084 104.1020 256.0342 13.15547924102701
ONEWEB-0679             
1 56715U 23068F   25178.80413644  .00000009  00000+0 -11194-4 0  9995
2 56715  87.9051 299.4051 0001415  95.3212 264.8080 13.16592788105092
ONEWEB-0680             
1 56716U 23068G   25178.83809977 -.00000056  00000+0 -16766-3 0  9999
2 56716  87.9249 314.6453 0001718  77.9076 282.2251 13.21827704104287
ONEWEB-0681             
1 56717U 23068H   25178.92402772 -.00000661  00000+0 -16329-2 0  9998
2 56717  87.9254 314.6575 0001281 133.6123 226.5118 13.21832700104282
ONEWEB-0682             
1 56718U 23068J   25178.83505048 -.00000078  00000+0 -24234-3 0  9996
2 56718  87.9060 329.8516 0001611  80.3274 279.8038 13.15549834103561
