<?xml version="1.0" encoding="UTF-8"?>
<ndm xmlns:xsi="http://www.w3.org/2001/XMLSchema-instance" xsi:noNamespaceSchemaLocation="https://sanaregistry.org/r/ndmxml_unqualified/ndmxml-2.0.0-master-2.0.xsd">
<omm id="CCSDS_OMM_VERS" version="2.0">
<header><CREATION_DATE/><ORIGINATOR/></header><body><segment><metadata><OBJECT_NAME>ONEWEB-0668</OBJECT_NAME><OBJECT_ID>2023-068B</OBJECT_ID><CENTER_NAME>EARTH</CENTER_NAME><REF_FRAME>TEME</REF_FRAME><TIME_SYSTEM>UTC</TIME_SYSTEM><MEAN_ELEMENT_THEORY>SGP4</MEAN_ELEMENT_THEORY></metadata><data><meanElements><EPOCH>2025-06-27T20:30:54.955872</EPOCH><MEAN_MOTION>13.16593271</MEAN_MOTION><ECCENTRICITY>.0001889</ECCENTRICITY><INCLINATION>87.9062</INCLINATION><RA_OF_ASC_NODE>299.3764</RA_OF_ASC_NODE><ARG_OF_PERICENTER>84.4786</ARG_OF_PERICENTER><MEAN_ANOMALY>275.6560</MEAN_ANOMALY></meanElements><tleParameters><EPHEMERIS_TYPE>0</EPHEMERIS_TYPE><CLASSIFICATION_TYPE>U</CLASSIFICATION_TYPE><NORAD_CAT_ID>56711</NORAD_CAT_ID><ELEMENT_SET_NO>999</ELEMENT_SET_NO><REV_AT_EPOCH>10585</REV_AT_EPOCH><BSTAR>.23896E-3</BSTAR><MEAN_MOTION_DOT>.104E-5</MEAN_MOTION_DOT><MEAN_MOTION_DDOT>0</MEAN_MOTION_DDOT></tleParameters></data></segment></body></omm>
<omm id="CCSDS_OMM_VERS" version="2.0">
<header><CREATION_DATE/><ORIGINATOR/></header><body><segment><metadata><OBJECT_NAME>ONEWEB-0676</OBJECT_NAME><OBJECT_ID>2023-068C</OBJECT_ID><CENTER_NAME>EARTH</CENTER_NAME><REF_FRAME>TEME</REF_FRAME><TIME_SYSTEM>UTC</TIME_SYSTEM><MEAN_ELEMENT_THEORY>SGP4</MEAN_ELEMENT_THEORY></metadata><data><meanElements><EPOCH>2025-06-27T20:02:26.267136</EPOCH><MEAN_MOTION>13.16593360</MEAN_MOTION><ECCENTRICITY>.000177</ECCENTRICITY><INCLINATION>87.9052</INCLINATION><RA_OF_ASC_NODE>299.4066</RA_OF_ASC_NODE><ARG_OF_PERICENTER>115.0755</ARG_OF_PERICENTER><MEAN_ANOMALY>245.0560</MEAN_ANOMALY></meanElements><tleParameters><EPHEMERIS_TYPE>0</EPHEMERIS_TYPE><CLASSIFICATION_TYPE>U</CLASSIFICATION_TYPE><NORAD_CAT_ID>56712</NORAD_CAT_ID><ELEMENT_SET_NO>999</ELEMENT_SET_NO><REV_AT_EPOCH>10507</REV_AT_EPOCH><BSTAR>.24136E-3</BSTAR><MEAN_MOTION_DOT>.105E-5</MEAN_MOTION_DOT><MEAN_MOTION_DDOT>0</MEAN_MOTION_DDOT></tleParameters></data></segment></body></omm>
<omm id="CCSDS_OMM_VERS" version="2.0">
<header><CREATION_DATE/><ORIGINATOR/></header><body><segment><metadata><OBJECT_NAME>ONEWEB-0677</OBJECT_NAME><OBJECT_ID>2023-068D</OBJECT_ID><CENTER_NAME>EARTH</CENTER_NAME><REF_FRAME>TEME</REF_FRAME><TIME_SYSTEM>UTC</TIME_SYSTEM><MEAN_ELEMENT_THEORY>SGP4</MEAN_ELEMENT_THEORY></metadata><data><meanElements><EPOCH>2025-06-27T20:55:58.505088</EPOCH><MEAN_MOTION>13.20771431</MEAN_MOTION><ECCENTRICITY>.0001536</ECCENTRICITY><INCLINATION>87.9255</INCLINATION><RA_OF_ASC_NODE>345.0105</RA_OF_ASC_NODE><ARG_OF_PERICENTER>95.3074</ARG_OF_PERICENTER><MEAN_ANOMALY>264.8234</MEAN_ANOMALY></meanElements><tleParameters><EPHEMERIS_TYPE>0</EPHEMERIS_TYPE><CLASSIFICATION_TYPE>U</CLASSIFICATION_TYPE><NORAD_CAT_ID>56713</NORAD_CAT_ID><ELEMENT_SET_NO>999</ELEMENT_SET_NO><REV_AT_EPOCH>10303</REV_AT_EPOCH><BSTAR>-.6207E-3</BSTAR><MEAN_MOTION_DOT>-.239E-5</MEAN_MOTION_DOT><MEAN_MOTION_DDOT>0</MEAN_MOTION_DDOT></tleParameters></data></segment></body></omm>
<omm id="CCSDS_OMM_VERS" version="2.0">
<header><CREATION_DATE/><ORIGINATOR/></header><body><segment><metadata><OBJECT_NAME>ONEWEB-0678</OBJECT_NAME><OBJECT_ID>2023-068E</OBJECT_ID><CENTER_NAME>EARTH</CENTER_NAME><REF_FRAME>TEME</REF_FRAME><TIME_SYSTEM>UTC</TIME_SYSTEM><MEAN_ELEMENT_THEORY>SGP4</MEAN_ELEMENT_THEORY></metadata><data><meanElements><EPOCH>2025-06-27T21:14:20.366016</EPOCH><MEAN_MOTION>13.15547924</MEAN_MOTION><ECCENTRICITY>.0002084</ECCENTRICITY><INCLINATION>87.9062</INCLINATION><RA_OF_ASC_NODE>329.8115</RA_OF_ASC_NODE><ARG_OF_PERICENTER>104.1020</ARG_OF_PERICENTER><MEAN_ANOMALY>256.0342</MEAN_ANOMALY></meanElements><tleParameters><EPHEMERIS_TYPE>0</EPHEMERIS_TYPE><CLASSIFICATION_TYPE>U</CLASSIFICATION_TYPE><NORAD_CAT_ID>56714</NORAD_CAT_ID><ELEMENT_SET_NO>999</ELEMENT_SET_NO><REV_AT_EPOCH>10270</REV_AT_EPOCH><BSTAR>.61983E-4</BSTAR><MEAN_MOTION_DOT>.36E-6</MEAN_MOTION_DOT><MEAN_MOTION_DDOT>0</MEAN_MOTION_DDOT></tleParameters></data></segment></body></omm>
<omm id="CCSDS_OMM_VERS" version="2.0">
<header><CREATION_DATE/><ORIGINATOR/></header><body><segment><metadata><OBJECT_NAME>ONEWEB-0679</OBJECT_NAME><OBJECT_ID>2023-068F</OBJECT_ID><CENTER_NAME>EARTH</CENTER_NAME><REF_FRAME>TEME</REF_FRAME><TIME_SYSTEM>UTC</TIME_SYSTEM><MEAN_ELEMENT_THEORY>SGP4</MEAN_ELEMENT_THEORY></metadata><data><meanElements><EPOCH>2025-06-27T19:17:57.388416</EPOCH><MEAN_MOTION>13.16592788</MEAN_MOTION><ECCENTRICITY>.0001415</ECCENTRICITY><INCLINATION>87.9051</INCLINATION><RA_OF_ASC_NODE>299.4051</RA_OF_ASC_NODE><ARG_OF_PERICENTER>95.3212</ARG_OF_PERICENTER><MEAN_ANOMALY>264.8080</MEAN_ANOMALY></meanElements><tleParameters><EPHEMERIS_TYPE>0</EPHEMERIS_TYPE><CLASSIFICATION_TYPE>U</CLASSIFICATION_TYPE><NORAD_CAT_ID>56715</NORAD_CAT_ID><ELEMENT_SET_NO>999</ELEMENT_SET_NO><REV_AT_EPOCH>10509</REV_AT_EPOCH><BSTAR>-.11194E-4</BSTAR><MEAN_MOTION_DOT>.9E-7</MEAN_MOTION_DOT><MEAN_MOTION_DDOT>0</MEAN_MOTION_DDOT></tleParameters></data></segment></body></omm>
<omm id="CCSDS_OMM_VERS" version="2.0">
<header><CREATION_DATE/><ORIGINATOR/></header><body><segment><metadata><OBJECT_NAME>ONEWEB-0680</OBJECT_NAME><OBJECT_ID>2023-068G</OBJECT_ID><CENTER_NAME>EARTH</CENTER_NAME><REF_FRAME>TEME</REF_FRAME><TIME_SYSTEM>UTC</TIME_SYSTEM><MEAN_ELEMENT_THEORY>SGP4</MEAN_ELEMENT_THEORY></metadata><data><meanElements><EPOCH>2025-06-27T20:06:51.820128</EPOCH><MEAN_MOTION>13.21827704</MEAN_MOTION><ECCENTRICITY>.0001718</ECCENTRICITY><INCLINATION>87.9249</INCLINATION><RA_OF_ASC_NODE>314.6453</RA_OF_ASC_NODE><ARG_OF_PERICENTER>77.9076</ARG_OF_PERICENTER><MEAN_ANOMALY>282.2251</MEAN_ANOMALY></meanElements><tleParameters><EPHEMERIS_TYPE>0</EPHEMERIS_TYPE><CLASSIFICATION_TYPE>U</CLASSIFICATION_TYPE><NORAD_CAT_ID>56716</NORAD_CAT_ID><ELEMENT_SET_NO>999</ELEMENT_SET_NO><REV_AT_EPOCH>10428</REV_AT_EPOCH><BSTAR>-.16766E-3</BSTAR><MEAN_MOTION_DOT>-.56E-6</MEAN_MOTION_DOT><MEAN_MOTION_DDOT>0</MEAN_MOTION_DDOT></tleParameters></data></segment></body></omm>
<omm id="CCSDS_OMM_VERS" version="2.0">
<header><CREATION_DATE/><ORIGINATOR/></header><body><segment><metadata><OBJECT_NAME>ONEWEB-0681</OBJECT_NAME><OBJECT_ID>2023-068H</OBJECT_ID><CENTER_NAME>EARTH</CENTER_NAME><REF_FRAME>TEME</REF_FRAME><TIME_SYSTEM>UTC</TIME_SYSTEM><MEAN_ELEMENT_THEORY>SGP4</MEAN_ELEMENT_THEORY></metadata><data><meanElements><EPOCH>2025-06-27T22:10:35.995008</EPOCH><MEAN_MOTION>13.21832700</MEAN_MOTION><ECCENTRICITY>.0001281</ECCENTRICITY><INCLINATION>87.9254</INCLINATION><RA_OF_ASC_NODE>314.6575</RA_OF_ASC_NODE><ARG_OF_PERICENTER>133.6123</ARG_OF_PERICENTER><MEAN_ANOMALY>226.5118</MEAN_ANOMALY></meanElements><tleParameters><EPHEMERIS_TYPE>0</EPHEMERIS_TYPE><CLASSIFICATION_TYPE>U</CLASSIFICATION_TYPE><NORAD_CAT_ID>56717</NORAD_CAT_ID><ELEMENT_SET_NO>999</ELEMENT_SET_NO><REV_AT_EPOCH>10428</REV_AT_EPOCH><BSTAR>-.16329E-2</BSTAR><MEAN_MOTION_DOT>-.661E-5</MEAN_MOTION_DOT><MEAN_MOTION_DDOT>0</MEAN_MOTION_DDOT></tleParameters></data></segment></body></omm>
<omm id="CCSDS_OMM_VERS" version="2.0">
<header><CREATION_DATE/><ORIGINATOR/></header><body><segment><metadata><OBJECT_NAME>ONEWEB-0682</OBJECT_NAME><OBJECT_ID>2023-068J</OBJECT_ID><CENTER_NAME>EARTH</CENTER_NAME><REF_FRAME>TEME</REF_FRAME><TIME_SYSTEM>UTC</TIME_SYSTEM><MEAN_ELEMENT_THEORY>SGP4</MEAN_ELEMENT_THEORY></metadata><data><meanElements><EPOCH>2025-06-27T20:02:28.361472</EPOCH><MEAN_MOTION>13.15549834</MEAN_MOTION><ECCENTRICITY>.0001611</ECCENTRICITY><INCLINATION>87.9060</INCLINATION><RA_OF_ASC_NODE>329.8516</RA_OF_ASC_NODE><ARG_OF_PERICENTER>80.3274</ARG_OF_PERICENTER><MEAN_ANOMALY>279.8038</MEAN_ANOMALY></meanElements><tleParameters><EPHEMERIS_TYPE>0</EPHEMERIS_TYPE><CLASSIFICATION_TYPE>U</CLASSIFICATION_TYPE><NORAD_CAT_ID>56718</NORAD_CAT_ID><ELEMENT_SET_NO>999</ELEMENT_SET_NO><REV_AT_EPOCH>10356</REV_AT_EPOCH><BSTAR>-.24234E-3</BSTAR><MEAN_MOTION_DOT>-.78E-6</MEAN_MOTION_DOT><MEAN_MOTION_DDOT>0</MEAN_MOTION_DDOT></tleParameters></data></segment></body></omm>

</ndm>
